{"fetched_at":"2026-07-14T17:40:51.802Z","source":"https://celestrak.org/NORAD/elements/gp.php?NAME=JILIN&FORMAT=JSON","constellation":"jilin-1-gaofen","records":[{"OBJECT_NAME":"JILIN-1 GAOFEN 3A","OBJECT_ID":"2019-032C","EPOCH":"2026-07-14T04:39:42.920928","CLASSIFICATION_TYPE":"U","MEAN_MOTION":15.3317823,"ECCENTRICITY":0.0004732,"INCLINATION":44.9723,"RA_OF_ASC_NODE":208.2354,"ARG_OF_PERICENTER":96.487,"MEAN_ANOMALY":263.6554,"EPHEMERIS_TYPE":0,"NORAD_CAT_ID":44312,"ELEMENT_SET_NO":999,"REV_AT_EPOCH":39198,"BSTAR":0.00020169,"MEAN_MOTION_DOT":0.00006285,"MEAN_MOTION_DDOT":0},{"OBJECT_NAME":"JILIN-1 GAOFEN 2A","OBJECT_ID":"2019-075A","EPOCH":"2026-07-14T04:06:55.073664","CLASSIFICATION_TYPE":"U","MEAN_MOTION":15.3999755,"ECCENTRICITY":0.0005275,"INCLINATION":97.4968,"RA_OF_ASC_NODE":279.6041,"ARG_OF_PERICENTER":358.9588,"MEAN_ANOMALY":1.1645,"EPHEMERIS_TYPE":0,"NORAD_CAT_ID":44777,"ELEMENT_SET_NO":999,"REV_AT_EPOCH":36903,"BSTAR":0.00022065,"MEAN_MOTION_DOT":0.0000872,"MEAN_MOTION_DDOT":0},{"OBJECT_NAME":"JILIN-1 GAOFEN 2B","OBJECT_ID":"2019-086A","EPOCH":"2026-07-14T04:31:45.662880","CLASSIFICATION_TYPE":"U","MEAN_MOTION":15.20992926,"ECCENTRICITY":0.0013164,"INCLINATION":97.4876,"RA_OF_ASC_NODE":267.0136,"ARG_OF_PERICENTER":219.4985,"MEAN_ANOMALY":140.5292,"EPHEMERIS_TYPE":0,"NORAD_CAT_ID":44836,"ELEMENT_SET_NO":999,"REV_AT_EPOCH":36459,"BSTAR":0.00014907,"MEAN_MOTION_DOT":0.00003241,"MEAN_MOTION_DDOT":0},{"OBJECT_NAME":"JILIN-1 GAOFEN 3E","OBJECT_ID":"2020-065D","EPOCH":"2026-07-14T04:45:44.853120","CLASSIFICATION_TYPE":"U","MEAN_MOTION":15.6713365,"ECCENTRICITY":0.0010363,"INCLINATION":97.2215,"RA_OF_ASC_NODE":248.4946,"ARG_OF_PERICENTER":75.6338,"MEAN_ANOMALY":284.6072,"EPHEMERIS_TYPE":0,"NORAD_CAT_ID":46457,"ELEMENT_SET_NO":999,"REV_AT_EPOCH":32398,"BSTAR":0.00048708,"MEAN_MOTION_DOT":0.0005226,"MEAN_MOTION_DDOT":0},{"OBJECT_NAME":"JILIN-1 GAOFEN 3F","OBJECT_ID":"2020-065E","EPOCH":"2026-07-14T03:31:36.861024","CLASSIFICATION_TYPE":"U","MEAN_MOTION":15.63858439,"ECCENTRICITY":0.0011718,"INCLINATION":97.2171,"RA_OF_ASC_NODE":245.6386,"ARG_OF_PERICENTER":61.6226,"MEAN_ANOMALY":298.6213,"EPHEMERIS_TYPE":0,"NORAD_CAT_ID":46458,"ELEMENT_SET_NO":999,"REV_AT_EPOCH":32391,"BSTAR":0.00044452,"MEAN_MOTION_DOT":0.00041834,"MEAN_MOTION_DDOT":0},{"OBJECT_NAME":"JILIN-1 GAOFEN 3G","OBJECT_ID":"2020-065F","EPOCH":"2026-07-14T04:02:54.009024","CLASSIFICATION_TYPE":"U","MEAN_MOTION":15.76756299,"ECCENTRICITY":0.0005248,"INCLINATION":97.2228,"RA_OF_ASC_NODE":252.9625,"ARG_OF_PERICENTER":278.7655,"MEAN_ANOMALY":81.3017,"EPHEMERIS_TYPE":0,"NORAD_CAT_ID":46459,"ELEMENT_SET_NO":999,"REV_AT_EPOCH":32418,"BSTAR":0.00054632,"MEAN_MOTION_DOT":0.00088075,"MEAN_MOTION_DDOT":0},{"OBJECT_NAME":"JILIN-1 GAOFEN 3H","OBJECT_ID":"2020-065G","EPOCH":"2026-07-14T03:29:31.216416","CLASSIFICATION_TYPE":"U","MEAN_MOTION":15.72135885,"ECCENTRICITY":0.0006303,"INCLINATION":97.2179,"RA_OF_ASC_NODE":249.0812,"ARG_OF_PERICENTER":206.025,"MEAN_ANOMALY":154.0697,"EPHEMERIS_TYPE":0,"NORAD_CAT_ID":46460,"ELEMENT_SET_NO":999,"REV_AT_EPOCH":32411,"BSTAR":0.00050631,"MEAN_MOTION_DOT":0.0006676,"MEAN_MOTION_DDOT":0},{"OBJECT_NAME":"JILIN-1 GAOFEN 2D","OBJECT_ID":"2021-086A","EPOCH":"2026-07-14T04:24:01.245600","CLASSIFICATION_TYPE":"U","MEAN_MOTION":15.1086081,"ECCENTRICITY":0.0034141,"INCLINATION":97.6506,"RA_OF_ASC_NODE":317.8896,"ARG_OF_PERICENTER":54.0338,"MEAN_ANOMALY":306.405,"EPHEMERIS_TYPE":0,"NORAD_CAT_ID":49256,"ELEMENT_SET_NO":999,"REV_AT_EPOCH":26479,"BSTAR":0.00011918,"MEAN_MOTION_DOT":0.00001942,"MEAN_MOTION_DDOT":0},{"OBJECT_NAME":"JILIN-1 GAOFEN 2F","OBJECT_ID":"2021-097A","EPOCH":"2026-07-14T04:14:48.289920","CLASSIFICATION_TYPE":"U","MEAN_MOTION":15.0794182,"ECCENTRICITY":0.0019703,"INCLINATION":97.6727,"RA_OF_ASC_NODE":321.3166,"ARG_OF_PERICENTER":133.1284,"MEAN_ANOMALY":227.1596,"EPHEMERIS_TYPE":0,"NORAD_CAT_ID":49338,"ELEMENT_SET_NO":999,"REV_AT_EPOCH":26038,"BSTAR":0.00016054,"MEAN_MOTION_DOT":0.00002411,"MEAN_MOTION_DDOT":0},{"OBJECT_NAME":"JILIN-1 GAOFEN 3D27","OBJECT_ID":"2022-048B","EPOCH":"2026-07-14T03:42:06.366240","CLASSIFICATION_TYPE":"U","MEAN_MOTION":15.82803643,"ECCENTRICITY":0.000515,"INCLINATION":97.5728,"RA_OF_ASC_NODE":311.6885,"ARG_OF_PERICENTER":246.4654,"MEAN_ANOMALY":113.6073,"EPHEMERIS_TYPE":0,"NORAD_CAT_ID":52444,"ELEMENT_SET_NO":999,"REV_AT_EPOCH":23373,"BSTAR":0.00064854,"MEAN_MOTION_DOT":0.00138283,"MEAN_MOTION_DDOT":0},{"OBJECT_NAME":"JILIN-1 GAOFEN 3D28","OBJECT_ID":"2022-048C","EPOCH":"2026-07-14T03:37:37.804800","CLASSIFICATION_TYPE":"U","MEAN_MOTION":15.87744235,"ECCENTRICITY":0.0004941,"INCLINATION":97.5666,"RA_OF_ASC_NODE":311.9793,"ARG_OF_PERICENTER":244.7534,"MEAN_ANOMALY":115.3225,"EPHEMERIS_TYPE":0,"NORAD_CAT_ID":52445,"ELEMENT_SET_NO":999,"REV_AT_EPOCH":23379,"BSTAR":0.00071707,"MEAN_MOTION_DOT":0.00194855,"MEAN_MOTION_DDOT":0},{"OBJECT_NAME":"JILIN-1 GAOFEN 3D29","OBJECT_ID":"2022-048D","EPOCH":"2026-07-14T04:51:37.429056","CLASSIFICATION_TYPE":"U","MEAN_MOTION":15.83033076,"ECCENTRICITY":0.0004507,"INCLINATION":97.5734,"RA_OF_ASC_NODE":312.1068,"ARG_OF_PERICENTER":229.1699,"MEAN_ANOMALY":130.9179,"EPHEMERIS_TYPE":0,"NORAD_CAT_ID":52446,"ELEMENT_SET_NO":999,"REV_AT_EPOCH":23376,"BSTAR":0.0006402,"MEAN_MOTION_DOT":0.00137941,"MEAN_MOTION_DDOT":0},{"OBJECT_NAME":"JILIN-1 GAOFEN 3D31","OBJECT_ID":"2022-048F","EPOCH":"2026-07-14T04:11:40.015680","CLASSIFICATION_TYPE":"U","MEAN_MOTION":15.9346896,"ECCENTRICITY":0.0005417,"INCLINATION":97.5695,"RA_OF_ASC_NODE":313.4084,"ARG_OF_PERICENTER":241.5972,"MEAN_ANOMALY":118.4756,"EPHEMERIS_TYPE":0,"NORAD_CAT_ID":52448,"ELEMENT_SET_NO":999,"REV_AT_EPOCH":23386,"BSTAR":0.00076773,"MEAN_MOTION_DOT":0.00272383,"MEAN_MOTION_DDOT":0.000030472},{"OBJECT_NAME":"JILIN-1 GAOFEN 03D09","OBJECT_ID":"2022-098B","EPOCH":"2026-07-14T04:48:52.259040","CLASSIFICATION_TYPE":"U","MEAN_MOTION":15.70143747,"ECCENTRICITY":0.00034,"INCLINATION":97.5626,"RA_OF_ASC_NODE":326.9742,"ARG_OF_PERICENTER":235.1022,"MEAN_ANOMALY":124.992,"EPHEMERIS_TYPE":0,"NORAD_CAT_ID":53445,"ELEMENT_SET_NO":999,"REV_AT_EPOCH":21886,"BSTAR":0.00048892,"MEAN_MOTION_DOT":0.00059218,"MEAN_MOTION_DDOT":0},{"OBJECT_NAME":"JILIN-1 GAOFEN 03D43","OBJECT_ID":"2022-098E","EPOCH":"2026-07-14T04:17:42.727200","CLASSIFICATION_TYPE":"U","MEAN_MOTION":15.73875326,"ECCENTRICITY":0.0003709,"INCLINATION":97.5616,"RA_OF_ASC_NODE":328.1054,"ARG_OF_PERICENTER":231.149,"MEAN_ANOMALY":128.9443,"EPHEMERIS_TYPE":0,"NORAD_CAT_ID":53448,"ELEMENT_SET_NO":999,"REV_AT_EPOCH":21893,"BSTAR":0.00052922,"MEAN_MOTION_DOT":0.00075155,"MEAN_MOTION_DDOT":0},{"OBJECT_NAME":"JILIN-1 GAOFEN 03D08","OBJECT_ID":"2022-155A","EPOCH":"2026-07-14T04:38:58.316064","CLASSIFICATION_TYPE":"U","MEAN_MOTION":15.67464023,"ECCENTRICITY":0.000419,"INCLINATION":97.6229,"RA_OF_ASC_NODE":342.8161,"ARG_OF_PERICENTER":231.4399,"MEAN_ANOMALY":128.6486,"EPHEMERIS_TYPE":0,"NORAD_CAT_ID":54251,"ELEMENT_SET_NO":999,"REV_AT_EPOCH":20404,"BSTAR":0.00044197,"MEAN_MOTION_DOT":0.00047905,"MEAN_MOTION_DDOT":0}]}
