JILIN-1 GAOFEN 3A       
1 44312U 19032C   26195.19424677  .00006285  00000+0  20169-3 0  9993
2 44312  44.9723 208.2354 0004732  96.4870 263.6554 15.33178230391983
JILIN-1 GAOFEN 2A       
1 44777U 19075A   26195.17147076  .00008720  00000+0  22065-3 0  9991
2 44777  97.4968 279.6041 0005275 358.9588   1.1645 15.39997550369039
JILIN-1 GAOFEN 2B       
1 44836U 19086A   26195.18872295  .00003241  00000+0  14907-3 0  9997
2 44836  97.4876 267.0136 0013164 219.4985 140.5292 15.20992926364591
JILIN-1 GAOFEN 3E       
1 46457U 20065D   26195.19843580  .00052260  00000+0  48708-3 0  9994
2 46457  97.2215 248.4946 0010363  75.6338 284.6072 15.67133650323987
JILIN-1 GAOFEN 3F       
1 46458U 20065E   26195.14695441  .00041834  00000+0  44452-3 0  9998
2 46458  97.2171 245.6386 0011718  61.6226 298.6213 15.63858439323912
JILIN-1 GAOFEN 3G       
1 46459U 20065F   26195.16868066  .00088075  00000+0  54632-3 0  9995
2 46459  97.2228 252.9625 0005248 278.7655  81.3017 15.76756299324185
JILIN-1 GAOFEN 3H       
1 46460U 20065G   26195.14550019  .00066760  00000+0  50631-3 0  9993
2 46460  97.2179 249.0812 0006303 206.0250 154.0697 15.72135885324118
JILIN-1 GAOFEN 2D       
1 49256U 21086A   26195.18334775  .00001942  00000+0  11918-3 0  9992
2 49256  97.6506 317.8896 0034141  54.0338 306.4050 15.10860810264795
JILIN-1 GAOFEN 2F       
1 49338U 21097A   26195.17694780  .00002411  00000+0  16054-3 0  9997
2 49338  97.6727 321.3166 0019703 133.1284 227.1596 15.07941820260389
JILIN-1 GAOFEN 3D27     
1 52444U 22048B   26195.15424035  .00138283  00000+0  64854-3 0  9996
2 52444  97.5728 311.6885 0005150 246.4654 113.6073 15.82803643233732
JILIN-1 GAOFEN 3D28     
1 52445U 22048C   26195.15113200  .00194855  00000+0  71707-3 0  9998
2 52445  97.5666 311.9793 0004941 244.7534 115.3225 15.87744235233790
JILIN-1 GAOFEN 3D29     
1 52446U 22048D   26195.20251654  .00137941  00000+0  64020-3 0  9994
2 52446  97.5734 312.1068 0004507 229.1699 130.9179 15.83033076233760
JILIN-1 GAOFEN 3D31     
1 52448U 22048F   26195.17476870  .00272383  30472-4  76773-3 0  9990
2 52448  97.5695 313.4084 0005417 241.5972 118.4756 15.93468960233861
JILIN-1 GAOFEN 03D09    
1 53445U 22098B   26195.20060485  .00059218  00000+0  48892-3 0  9998
2 53445  97.5626 326.9742 0003400 235.1022 124.9920 15.70143747218864
JILIN-1 GAOFEN 03D43    
1 53448U 22098E   26195.17896675  .00075155  00000+0  52922-3 0  9992
2 53448  97.5616 328.1054 0003709 231.1490 128.9443 15.73875326218933
JILIN-1 GAOFEN 03D08    
1 54251U 22155A   26195.19373051  .00047905  00000+0  44197-3 0  9996
2 54251  97.6229 342.8161 0004190 231.4399 128.6486 15.67464023204047
